[{"OBJECT_NAME":"STARLINK-35261","OBJECT_ID":"2025-207D","EPOCH":"2026-03-09T17:56:34.272096","MEAN_MOTION":15.05645009,"ECCENTRICITY":0.00012423,"INCLINATION":97.603,"RA_OF_ASC_NODE":138.7752,"ARG_OF_PERICENTER":85.1834,"MEAN_ANOMALY":274.9535,"EPHEMERIS_TYPE":0,"CLASSIFICATION_TYPE":"U","NORAD_CAT_ID":65595,"ELEMENT_SET_NO":999,"REV_AT_EPOCH":2827,"BSTAR":0.00026470351,"MEAN_MOTION_DOT":3.76e-5,"MEAN_MOTION_DDOT":0},{"OBJECT_NAME":"UNKNOWN","OBJECT_ID":"","EPOCH":"2026-03-08T12:59:39.172704","MEAN_MOTION":15.0131728,"ECCENTRICITY":0.00204305,"INCLINATION":86.3534,"RA_OF_ASC_NODE":358.469,"ARG_OF_PERICENTER":121.5673,"MEAN_ANOMALY":238.7558,"EPHEMERIS_TYPE":0,"CLASSIFICATION_TYPE":"U","NORAD_CAT_ID":270086,"ELEMENT_SET_NO":999,"REV_AT_EPOCH":9441,"BSTAR":0.0053525659,"MEAN_MOTION_DOT":0.00069778,"MEAN_MOTION_DDOT":0}]
